[{"OBJECT_NAME":"STARLINK-3176","OBJECT_ID":"2022-005C","EPOCH":"2026-03-09T21:22:11.353152","MEAN_MOTION":15.08836453,"ECCENTRICITY":0.00014799,"INCLINATION":53.2167,"RA_OF_ASC_NODE":288.2223,"ARG_OF_PERICENTER":94.9198,"MEAN_ANOMALY":265.1963,"EPHEMERIS_TYPE":0,"CLASSIFICATION_TYPE":"U","NORAD_CAT_ID":51106,"ELEMENT_SET_NO":999,"REV_AT_EPOCH":22890,"BSTAR":-7.740474e-6,"MEAN_MOTION_DOT":-4.11e-6,"MEAN_MOTION_DDOT":0},{"OBJECT_NAME":"THOR ABLESTAR DEB","OBJECT_ID":"1961-015EX","EPOCH":"2026-03-09T22:58:31.837152","MEAN_MOTION":15.04262729,"ECCENTRICITY":0.00191468,"INCLINATION":67.4961,"RA_OF_ASC_NODE":12.7011,"ARG_OF_PERICENTER":32.2919,"MEAN_ANOMALY":327.9391,"EPHEMERIS_TYPE":0,"CLASSIFICATION_TYPE":"U","NORAD_CAT_ID":461,"ELEMENT_SET_NO":999,"REV_AT_EPOCH":37086,"BSTAR":0.0020469071,"MEAN_MOTION_DOT":0.00028661,"MEAN_MOTION_DDOT":0}]
